#aV2013  1 23  0  0  0.00000000     288 DD+AD WGS84 FIT  NGA
## 1724 259200.00000000   300.00000000 56315 0.0000000000000
+   31     1  2  3  4  5  6  7  8  9 10 11 12 13 14 15 16 17
+         18 19 20 21 22 23 24 25 26 28 29 30 31 32  0  0  0
+          0  0  0  0  0  0  0  0  0  0  0  0  0  0  0  0  0
+          0  0  0  0  0  0  0  0  0  0  0  0  0  0  0  0  0
+          0  0  0  0  0  0  0  0  0  0  0  0  0  0  0  0  0
++         2  2  2  2  2  2  2  2  2  2  2  2  2  2  2  2  2
++         2  2  2  2  2  2  2  2  2  2  2  2  2  2  2  0  0
++         0  0  0  0  0  0  0  0  0  0  0  0  0  0  0  0  0
++         0  0  0  0  0  0  0  0  0  0  0  0  0  0  0  0  0
++         0  0  0  0  0  0  0  0  0  0  0  0  0  0  0  0  0
%c cc cc ccc ccc cccc cccc cccc cccc ccccc ccccc ccccc ccccc
%c cc cc ccc ccc cccc cccc cccc cccc ccccc ccccc ccccc ccccc
%f  0.0000000  0.000000000  0.00000000000  0.000000000000000
%f  0.0000000  0.000000000  0.00000000000  0.000000000000000
%i    0    0    0    0      0      0      0      0         0
%i    0    0    0    0      0      0      0      0         0
/*      NGA, ST. LOUIS,MO.                                  
/*   EPHEMERIS COMPUTED FROM  1 DAYS OF DATA
/*   EPOCHA SMOOTHER  
/* CCCCCCCCCCCCCCCCCCCCCCCCCCCCCCCCCCCCCCCCCCCCCCCCCCCCCCCCC
*  2013  1 23 19 35  0.00000000                                                 
P  1 -13992.756344  20016.119276  10336.363527    295.279622                    
V  1   1575.878633 -13335.498484  27961.004439      0.024391                    
P  2  15626.593462   1886.889374 -21180.655282    415.839243                    
V  2  -7268.221353  26462.401878  -3492.593668      0.012854                    
P  3 -22017.315680  -5244.722382  13578.557765    158.834517                    
V  3 -12086.664636 -13708.537390 -23780.489266      0.047925                    
P  4   9672.954599  15910.606301 -19115.384438    113.562901                    
V  4  -8855.665686  22227.398400  14517.325120      0.110757                    
P  5  26157.665305  -2514.995993  -4376.470986   -380.129046                    
V  5  -4734.951574   4117.419381 -30748.562713     -0.019849                    
P  6 -22092.572574 -11201.285586  10133.703904    377.706278                    
V  6  -7131.049313 -10814.847796 -27423.865507     -0.139320                    
P  7  -5676.162236  25454.821449   4184.789593    172.352151                    
V  7  -4106.684108   4195.528886 -31680.321877      0.043919                    
P  8   1103.541448  21583.890598  15121.302396      4.211800                    
V  8  -9177.361685  16926.273610 -24214.855580      0.002381                    
P  9  15837.189481  -6886.094846  19642.728761    215.743502                    
V  9  -6858.643877  25185.755359  13925.574168      0.026378                    
P 10  16557.305537  10361.945883 -18465.798498    -67.300228                    
V 10 -22054.580001   5852.100706 -16340.161683     -0.014592                    
P 11 -13596.411982  15325.237256  16333.462868   -346.413858                    
V 11  -2832.815738 -21992.674273  18098.460716     -0.037226                    
P 12  20970.229027 -11564.747877 -11283.644618    113.965911                    
V 12  14456.481637   -687.193623  27810.635884      0.020643                    
P 13   -962.646815  19223.161582 -18388.468459    150.279164                    
V 13 -14721.842637 -17783.223698 -18063.635173     -0.028547                    
P 14 -14181.851172 -22240.410206   3901.810227    219.878903                    
V 14   4600.145693   2338.774095  31491.269476      0.003962                    
P 15  15942.932470  -5047.850348  20663.260488   -106.060121                    
V 15  17593.601352  19562.263727  -8536.814676     -0.011677                    
P 16 -26144.643049    621.495236  -5562.854540   -251.979003                    
V 16   6588.303275  -2894.965131 -31000.498386     -0.002453                    
P 17  15788.922643  21410.973565   2423.423974     56.798968                    
V 17  -3684.622683   -574.444455  31490.702495     -0.036388                    
P 18    419.098536 -16378.798712  21253.894045    235.835590                    
V 18  25845.198097  -4808.961313  -4648.007798      0.018631                    
P 19 -17257.328454    510.070991  20214.082323   -342.418750                    
V 19 -14815.525978 -21049.245390 -11668.742705     -0.032613                    
P 20 -19489.286392  14085.500267 -11375.691450     81.194154                    
V 20 -14633.756165    574.828132  26267.750995      0.015175                    
P 21   1615.415449 -25064.664913   8261.086673   -276.335441                    
V 21   6673.122518  -8338.980433 -28994.074862     -0.022837                    
P 22 -13028.934315 -12445.833581  19735.243511    156.469739                    
V 22  23946.488639  -6460.145831  11711.573022      0.009859                    
P 23  -9610.161986  12031.407803 -21555.424302    120.992776                    
V 23 -18612.848883 -20322.456373  -3412.745285     -0.037572                    
P 24  15154.790536 -17249.904297  13327.977140      0.153833                    
V 24  -2853.123515  16850.593230  25078.567956     -0.006359                    
P 25  10205.360296 -15566.115055 -18949.048559     64.939114                    
V 25  23686.967442  -4003.084035  16155.638115      0.027038                    
P 26  19540.228920   9072.266988  15133.795019   -127.724165                    
V 26  10923.566689  17040.029053 -23014.699577      0.138568                    
P 28   8587.885905  13419.761748  21866.316800    226.141769                    
V 28 -25915.415786   4508.004586   7427.124486      0.035238                    
P 29    651.385919 -19157.470258 -18348.994293    400.837691                    
V 29  15988.823371  17120.532954 -17217.161736      0.037706                    
P 30 -21020.750494  -4778.131902 -15851.739789   -244.527252                    
V 30  17979.512315  -7766.859869 -22010.388537      0.100609                    
P 31 -11075.196733 -11254.641005 -21118.982158    299.064567                    
V 31   9589.694186 -25521.574613   8762.454984      0.018849                    
P 32 -24724.583594   7019.155128  -5367.837136   -528.920783                    
V 32  -7506.703404  -2606.126984  30829.061552     -0.035255                    
EOF
